NORAD_CAT_ID,OBJECT_NAME,OBJECT_TYPE,EPOCH,MEAN_MOTION,ECCENTRICITY,INCLINATION,RA_OF_ASC_NODE,ARG_OF_PERICENTER,MEAN_ANOMALY,BSTAR,MEAN_MOTION_DOT,MEAN_MOTION_DDOT,TLE_LINE0,TLE_LINE1,TLE_LINE2,SEMIMAJOR_AXIS,PERIOD,APOGEE,PERIGEE,DECAYED
54760.0,STARLINK-5220,PAYLOAD,2023-01-06 08:00:01,15.62654041,0.0001082,53.2173,209.712,80.7286,77.7285,-0.01451,-0.01191353,0.0,0 STARLINK-5220,1 54760U 22175C   23006.33334491 -.01191353  00000-0 -14510-1 0  9997,2 54760  53.2173 209.7120 0001082  80.7286  77.7285 15.62654041  2808,6758.130999999999,92.151,380.727,379.265,0.0
54760.0,STARLINK-5220,PAYLOAD,2023-01-06 22:00:00,15.61089704,0.0001296,53.2171,206.8756,83.6599,116.6765,-0.014158,-0.01102452,0.0,0 STARLINK-5220,1 54760U 22175C   23006.91667824 -.01102452  00000-0 -14158-1 0  9990,2 54760  53.2171 206.8756 0001296  83.6599 116.6765 15.61089704  2897,6762.645,92.243,385.387,383.634,0.0
54760.0,STARLINK-5220,PAYLOAD,2023-01-07 06:00:00,15.60300515,0.000113,53.2171,205.2548,68.1878,206.0461,-0.016005,-0.01198066,0.0,0 STARLINK-5220,1 54760U 22175C   23007.25001157 -.01198066  00000-0 -16005-1 0  9998,2 54760  53.2171 205.2548 0001130  68.1878 206.0461 15.60300515  2953,6764.925,92.29,387.555,386.026,0.0
54760.0,STARLINK-5220,PAYLOAD,2023-01-08 00:00:00,15.58361601,0.0001252,53.2172,201.6203,74.9603,91.8461,-0.016955,-0.01180239,0.0,0 STARLINK-5220,1 54760U 22175C   23008.00001157 -.01180239  00000-0 -16955-1 0  9999,2 54760  53.2172 201.6203 0001252  74.9603  91.8461 15.58361601  1306,6770.535,92.405,393.2480000000001,391.55300000000005,0.0
54760.0,STARLINK-5220,PAYLOAD,2023-01-08 06:00:00,15.57731998,0.0001327,53.2167,200.4098,60.7237,69.1088,-0.01768,-0.01199511,0.0,0 STARLINK-5220,1 54760U 22175C   23008.25001157 -.01199511  00000-0 -17680-1 0  9995,2 54760  53.2167 200.4098 0001327  60.7237  69.1088 15.57731998  3100,6772.36,92.442,395.1230000000001,393.326,0.0
54760.0,STARLINK-5220,PAYLOAD,2023-01-08 14:00:01,15.56869774,0.0001347,53.2167,198.7984,60.2593,139.3825,-0.018132,-0.01191678,0.0,0 STARLINK-5220,1 54760U 22175C   23008.58334491 -.01191678  00000-0 -18132-1 0  9990,2 54760  53.2167 198.7984 0001347  60.2593 139.3825 15.56869774  1307,6774.86,92.493,397.637,395.812,0.0
54760.0,STARLINK-5220,PAYLOAD,2023-01-08 22:00:00,15.56015393,0.0001222,53.2168,197.1917,71.0485,197.3674,-0.018782,-0.01195063,0.0,0 STARLINK-5220,1 54760U 22175C   23008.91667824 -.01195063  00000-0 -18782-1 0  9999,2 54760  53.2168 197.1917 0001222  71.0485 197.3674 15.56015393  1305,6777.34,92.544,400.033,398.376,0.0
54760.0,STARLINK-5220,PAYLOAD,2023-01-09 08:00:01,15.54935653,0.0001217,53.2174,195.1807,56.8499,26.1592,-0.019346,-0.01183745,0.0,0 STARLINK-5220,1 54760U 22175C   23009.33335648 -.01183745  00000-0 -19346-1 0  9993,2 54760  53.2174 195.1807 0001217  56.8499  26.1592 15.54935653  3272,6780.477,92.608,403.167,401.517,0.0
54760.0,STARLINK-5220,PAYLOAD,2023-01-09 14:00:01,15.54310465,0.0001264,53.2167,193.9781,55.7303,347.1464,-0.020243,-0.0122647,0.0,0 STARLINK-5220,1 54760U 22175C   23009.58334491 -.01226470  00000-0 -20243-1 0  9996,2 54760  53.2167 193.9781 0001264  55.7303 347.1464 15.54310465  1309,6782.295,92.646,405.017,403.302,0.0
54760.0,STARLINK-5220,PAYLOAD,2023-01-10 00:00:00,15.53221108,0.0001353,53.2172,191.9764,61.7962,153.0353,-0.020568,-0.01199904,0.0,0 STARLINK-5220,1 54760U 22175C   23010.00001157 -.01199904  00000-0 -20568-1 0  9996,2 54760  53.2172 191.9764 0001353  61.7962 153.0353 15.53221108  1306,6785.465999999999,92.711,408.249,406.413,0.0
54760.0,STARLINK-5220,PAYLOAD,2023-01-10 10:00:00,15.52150046,0.0001152,53.2173,189.9743,59.0912,326.0802,-0.021419,-0.01201586,0.0,0 STARLINK-5220,1 54760U 22175C   23010.41667824 -.01201586  00000-0 -21419-1 0  9996,2 54760  53.2173 189.9743 0001152  59.0912 326.0802 15.52150046  3442,6788.587,92.775,411.234,409.67,0.0
54760.0,STARLINK-5220,PAYLOAD,2023-01-10 14:00:01,15.51735441,0.0001485,53.2171,189.1765,59.4855,177.3631,-0.022105,-0.01219947,0.0,0 STARLINK-5220,1 54760U 22175C   23010.58334491 -.01219947  00000-0 -22105-1 0  9998,2 54760  53.2171 189.1765 0001485  59.4855 177.3631 15.51735441  1302,6789.795999999999,92.799,412.669,410.653,0.0
54760.0,STARLINK-5220,PAYLOAD,2023-01-10 22:00:00,15.50794015,0.0001346,53.213,187.5863,76.5564,222.9443,-0.019413,-0.01035767,0.0,0 STARLINK-5220,1 54760U 22175C   23010.91667824 -.01035767  00000-0 -19413-1 0  9998,2 54760  53.2130 187.5863 0001346  76.5564 222.9443 15.50794015  1300,6792.544,92.856,415.323,413.494,0.0
54760.0,STARLINK-5220,PAYLOAD,2023-01-11 08:00:01,15.4991969,0.0001302,53.2175,185.5867,54.5497,51.7685,-0.00098274,-0.00055899,0.0,0 STARLINK-5220,1 54760U 22175C   23011.33334491 -.00055899  00000-0 -98274-3 0  9997,2 54760  53.2175 185.5867 0001302  54.5497  51.7685 15.49919690  3588,6795.098000000001,92.908,417.848,416.078,0.0
54760.0,STARLINK-5220,PAYLOAD,2023-01-11 14:00:01,15.49887203,0.0001388,53.2175,184.3922,56.0618,5.9575,-5.8728e-05,-3.783e-05,0.0,0 STARLINK-5220,1 54760U 22175C   23011.58334491 -.00003783  00000-0 -58728-4 0  9990,2 54760  53.2175 184.3922 0001388  56.0618   5.9575 15.49887203  1304,6795.193,92.91,418.001,416.115,0.0
54760.0,STARLINK-5220,PAYLOAD,2023-01-11 22:00:00,15.49881646,0.0001435,53.2173,182.8006,51.6934,71.2414,0.00013202,7.047e-05,0.0,0 STARLINK-5220,1 54760U 22175C   23011.91667824  .00007047  00000-0  13202-3 0  9998,2 54760  53.2173 182.8006 0001435  51.6934  71.2414 15.49881646  3678,6795.209,92.91,418.049,416.099,0.0
54760.0,STARLINK-5220,PAYLOAD,2023-01-12 22:00:00,15.49853196,9.43e-05,53.2146,178.0264,69.4664,236.183,0.0009621,0.00054472,0.0,0 STARLINK-5220,1 54760U 22175C   23012.91667824  .00054472  00000-0  96210-3 0  9993,2 54760  53.2146 178.0264 0000943  69.4664 236.1830 15.49853196  3832,6795.292,92.912,417.798,416.516,0.0
54760.0,STARLINK-5220,PAYLOAD,2023-01-13 14:00:01,15.49903022,9.17e-05,53.2149,174.83900000000003,92.6782,334.7845,-0.00055768,-0.00031993,0.0,0 STARLINK-5220,1 54760U 22175C   23013.58334491 -.00031993  00000-0 -55768-3 0  9996,2 54760  53.2149 174.8390 0000917  92.6782 334.7845 15.49903022  1304,6795.147,92.909,417.635,416.388,0.0
54760.0,STARLINK-5220,PAYLOAD,2023-01-13 16:00:00,15.4989631,9.17e-05,53.2156,174.4404,84.8567,87.8398,-0.00049451,-0.00028426,0.0,0 STARLINK-5220,1 54760U 22175C   23013.66667824 -.00028426  00000-0 -49451-3 0  9993,2 54760  53.2156 174.4404 0000917  84.8567  87.8398 15.49896310  3940,6795.166,92.909,417.654,416.408,0.0
54760.0,STARLINK-5220,PAYLOAD,2023-01-13 22:00:00,15.49838417,8.83e-05,53.216,173.2452,69.9043,58.4896,0.002334,0.00134087,0.0,0 STARLINK-5220,1 54760U 22175C   23013.91667824  .00134087  00000-0  23340-2 0  9998,2 54760  53.2160 173.2452 0000883  69.9043  58.4896 15.49838417  1309,6795.335,92.913,417.8,416.6,0.0
54760.0,STARLINK-5220,PAYLOAD,2023-01-14 08:00:01,15.49869769,8.78e-05,53.2143,171.2536,106.6554,187.8766,0.0006348,0.00035722,0.0,0 STARLINK-5220,1 54760U 22175C   23014.33334491  .00035722  00000-0  63480-3 0  9992,2 54760  53.2143 171.2536 0000878 106.6554 187.8766 15.49869769  4053,6795.244000000001,92.911,417.705,416.512,0.0
54760.0,STARLINK-5220,PAYLOAD,2023-01-15 00:00:00,15.49885065,8.590000000000001e-05,53.2135,168.0692,79.2666,337.0776,0.00014082,7.549e-05,0.0,0 STARLINK-5220,1 54760U 22175C   23015.00001157  .00007549  00000-0  14082-3 0  9997,2 54760  53.2135 168.0692 0000859  79.2666 337.0776 15.49885065  4157,6795.1990000000005,92.91,417.648,416.48,0.0
54760.0,STARLINK-5220,PAYLOAD,2023-01-15 14:00:01,15.49931553,8.79e-05,53.214,165.2808,75.1688,357.7853,-0.0014856,-0.00084004,0.0,0 STARLINK-5220,1 54760U 22175C   23015.58334491 -.00084004  00000-0 -14856-2 0  9991,2 54760  53.2140 165.2808 0000879  75.1688 357.7853 15.49931553  1305,6795.063,92.907,417.525,416.331,0.0
54760.0,STARLINK-5220,PAYLOAD,2023-01-15 22:00:01,15.50075661,0.0001082999999999,53.2139,163.6885,61.169,72.7637,-0.020076,-0.01043169,0.0,0 STARLINK-5220,1 54760U 22175C   23015.91668981 -.01043169  00000-0 -20076-1 0  9990,2 54760  53.2139 163.6885 0001083  61.1690  72.7637 15.50075661  4292,6794.642,92.899,417.24300000000005,415.771,0.0
54760.0,STARLINK-5220,PAYLOAD,2023-01-16 08:00:01,15.49102144,9.37e-05,53.2141,161.6958,78.7691,220.818,-0.023065,-0.01163581,0.0,0 STARLINK-5220,1 54760U 22175C   23016.33334491 -.01163581  00000-0 -23065-1 0  9995,2 54760  53.2141 161.6958 0000937  78.7691 220.8180 15.49102144  4368,6797.488,92.957,419.99,418.716,0.0
54760.0,STARLINK-5220,PAYLOAD,2023-01-16 14:00:01,15.48483872,0.000117,53.2142,160.5044,79.3897,174.8923,-0.024876,-0.01222156,0.0,0 STARLINK-5220,1 54760U 22175C   23016.58334491 -.01222156  00000-0 -24876-1 0  9997,2 54760  53.2142 160.5044 0001170  79.3897 174.8923 15.48483872  1301,6799.298000000001,92.994,421.958,420.367,0.0
54760.0,STARLINK-5220,PAYLOAD,2023-01-16 22:00:00,15.47637761,0.00011,53.2141,158.9162,75.8725,237.0972,-0.02574,-0.0122703999999999,0.0,0 STARLINK-5220,1 54760U 22175C   23016.91667824 -.01227040  00000-0 -25740-1 0  9991,2 54760  53.2141 158.9162 0001100  75.8725 237.0972 15.47637761  1309,6801.776,93.045,424.389,422.892,0.0
54760.0,STARLINK-5220,PAYLOAD,2023-01-17 00:00:00,15.47436769,0.0001143,53.2142,158.5189,68.9421,348.54,-0.026699,-0.01260441,0.0,0 STARLINK-5220,1 54760U 22175C   23017.00001157 -.01260441  00000-0 -26699-1 0  9999,2 54760  53.2142 158.5189 0001143  68.9421 348.5400 15.47436769  4467,6802.365,93.057,425.007,423.452,0.0
54760.0,STARLINK-5220,PAYLOAD,2023-01-17 02:00:01,15.47197527,0.0001318,53.2144,158.1215,78.4687,83.4719,-0.026067,-0.01224002,0.0,0 STARLINK-5220,1 54760U 22175C   23017.08334491 -.01224002  00000-0 -26067-1 0  9999,2 54760  53.2144 158.1215 0001318  78.4687  83.4719 15.47197527  1303,6803.066,93.072,425.827,424.034,0.0
